SIRIUS FM-5             
1 35493U 09034A   17345.18379330 -.00000208  00000-0  00000+0 0  9994
2 35493   0.0169 318.8376 0000891  62.9405  38.3430  1.00272457 30790
